{"type": "FeatureCollection", "features": [ {"type": "Feature", "properties": {"norad_id": 66980, "name": "STARLINK-36086", "group": "last-30-days", "lat": 30.796447834764102, "lon": -112.27979257151802, "alt_km": 340.3706179562432, "timestamp": "2025-12-22T11:33:19.157221+00:00", "meta": {"OBJECT_NAME": "STARLINK-36086", "OBJECT_ID": "2025-288X", "EPOCH": "2025-12-22T04:00:01.998720", "MEAN_MOTION": 15.75059434, "ECCENTRICITY": 0.0001667, "INCLINATION": 43.0007, "RA_OF_ASC_NODE": 109.394, "ARG_OF_PERICENTER": 258.8355, "MEAN_ANOMALY": 245.4031, "EPHEMERIS_TYPE": 0, "CLASSIFICATION_TYPE": "U", "NORAD_CAT_ID": 66980, "ELEMENT_SET_NO": 999, "REV_AT_EPOCH": 334, "BSTAR": -0.00037334, "MEAN_MOTION_DOT": -0.00057488, "MEAN_MOTION_DDOT": 0}, "tle": {"line1": "1 66980U 25288X   25356.16668980 -.00057488  00000+0 -37334-3 0  9995", "line2": "2 66980  43.0007 109.3940 0001667 258.8355 245.4031 15.75059434  3349"}}, "geometry": {"type": "Point", "coordinates": [-112.27979257151802, 30.796447834764102]}}, {"type": "Feature", "properties": {"norad_id": 66981, "name": "STARLINK-36142", "group": "last-30-days", "lat": 29.780258304092293, "lon": -110.40700032861798, "alt_km": 340.77482281224275, "timestamp": "2025-12-22T11:33:19.157231+00:00", "meta": {"OBJECT_NAME": "STARLINK-36142", "OBJECT_ID": "2025-288Y", "EPOCH": "2025-12-22T04:00:01.998720", "MEAN_MOTION": 15.7503466, "ECCENTRICITY": 0.0001974, "INCLINATION": 43.0007, "RA_OF_ASC_NODE": 109.3893, "ARG_OF_PERICENTER": 267.6265, "MEAN_ANOMALY": 238.5369, "EPHEMERIS_TYPE": 0, "CLASSIFICATION_TYPE": "U", "NORAD_CAT_ID": 66981, "ELEMENT_SET_NO": 999, "REV_AT_EPOCH": 334, "BSTAR": -9.4842e-05, "MEAN_MOTION_DOT": -0.00015019, "MEAN_MOTION_DDOT": 0}, "tle": {"line1": "1 66981U 25288Y   25356.16668980 -.00015019  00000+0 -94842-4 0  9998", "line2": "2 66981  43.0007 109.3893 0001974 267.6265 238.5369 15.75034660  3347"}}, "geometry": {"type": "Point", "coordinates": [-110.40700032861798, 29.780258304092293]}}, {"type": "Feature", "properties": {"norad_id": 66982, "name": "STARLINK-36113", "group": "last-30-days", "lat": 28.73066928578402, "lon": -108.56037055524753, "alt_km": 340.7293014593324, "timestamp": "2025-12-22T11:33:19.157243+00:00", "meta": {"OBJECT_NAME": "STARLINK-36113", "OBJECT_ID": "2025-288Z", "EPOCH": "2025-12-22T04:00:01.998720", "MEAN_MOTION": 15.7505959, "ECCENTRICITY": 0.0001671, "INCLINATION": 43.0007, "RA_OF_ASC_NODE": 109.3839, "ARG_OF_PERICENTER": 264.0952, "MEAN_ANOMALY": 243.9788, "EPHEMERIS_TYPE": 0, "CLASSIFICATION_TYPE": "U", "NORAD_CAT_ID": 66982, "ELEMENT_SET_NO": 999, "REV_AT_EPOCH": 334, "BSTAR": -0.00037402, "MEAN_MOTION_DOT": -0.00057592, "MEAN_MOTION_DDOT": 0}, "tle": {"line1": "1 66982U 25288Z   25356.16668980 -.00057592  00000+0 -37402-3 0  9999", "line2": "2 66982  43.0007 109.3839 0001671 264.0952 243.9788 15.75059590  3340"}}, "geometry": {"type": "Point", "coordinates": [-108.56037055524753, 28.73066928578402]}}, {"type": "Feature", "properties": {"norad_id": 66983, "name": "STARLINK-36145", "group": "last-30-days", "lat": 26.567699140304242, "lon": -104.98962633047996, "alt_km": 340.9589352051207, "timestamp": "2025-12-22T11:33:19.157253+00:00", "meta": {"OBJECT_NAME": "STARLINK-36145", "OBJECT_ID": "2025-288AA", "EPOCH": "2025-12-22T04:00:01.998720", "MEAN_MOTION": 15.75040751, "ECCENTRICITY": 0.0001434, "INCLINATION": 43.0008, "RA_OF_ASC_NODE": 109.3746, "ARG_OF_PERICENTER": 266.0246, "MEAN_ANOMALY": 245.8945, "EPHEMERIS_TYPE": 0, "CLASSIFICATION_TYPE": "U", "NORAD_CAT_ID": 66983, "ELEMENT_SET_NO": 999, "REV_AT_EPOCH": 334, "BSTAR": -0.00021341, "MEAN_MOTION_DOT": -0.00033132, "MEAN_MOTION_DDOT": 0}, "tle": {"line1": "1 66983U 25288AA  25356.16668980 -.00033132  00000+0 -21341-3 0  9999", "line2": "2 66983  43.0008 109.3746 0001434 266.0246 245.8945 15.75040751  3349"}}, "geometry": {"type": "Point", "coordinates": [-104.98962633047996, 26.567699140304242]}}, {"type": "Feature", "properties": {"norad_id": 66984, "name": "STARLINK-35591", "group": "last-30-days", "lat": 27.664509756287423, "lon": -106.7638949417741, "alt_km": 340.5453324942582, "timestamp": "2025-12-22T11:33:19.157263+00:00", "meta": {"OBJECT_NAME": "STARLINK-35591", "OBJECT_ID": "2025-288AB", "EPOCH": "2025-12-22T04:00:01.998720", "MEAN_MOTION": 15.75053649, "ECCENTRICITY": 0.0001086, "INCLINATION": 43.0009, "RA_OF_ASC_NODE": 109.3788, "ARG_OF_PERICENTER": 261.0466, "MEAN_ANOMALY": 248.9276, "EPHEMERIS_TYPE": 0, "CLASSIFICATION_TYPE": "U", "NORAD_CAT_ID": 66984, "ELEMENT_SET_NO": 999, "REV_AT_EPOCH": 334, "BSTAR": -0.00014454, "MEAN_MOTION_DOT": -0.00022633, "MEAN_MOTION_DDOT": 0}, "tle": {"line1": "1 66984U 25288AB  25356.16668980 -.00022633  00000+0 -14454-3 0  9991", "line2": "2 66984  43.0009 109.3788 0001086 261.0466 248.9276 15.75053649  3340"}}, "geometry": {"type": "Point", "coordinates": [-106.7638949417741, 27.664509756287423]}}, {"type": "Feature", "properties": {"norad_id": 66985, "name": "STARLINK-36103", "group": "last-30-days", "lat": 25.454760653298514, "lon": -103.25876348932623, "alt_km": 341.29269788364036, "timestamp": "2025-12-22T11:33:19.157273+00:00", "meta": {"OBJECT_NAME": "STARLINK-36103", "OBJECT_ID": "2025-288AC", "EPOCH": "2025-12-22T04:00:01.998720", "MEAN_MOTION": 15.75063347, "ECCENTRICITY": 0.0001898, "INCLINATION": 43.0007, "RA_OF_ASC_NODE": 109.3696, "ARG_OF_PERICENTER": 266.9067, "MEAN_ANOMALY": 246.9128, "EPHEMERIS_TYPE": 0, "CLASSIFICATION_TYPE": "U", "NORAD_CAT_ID": 66985, "ELEMENT_SET_NO": 999, "REV_AT_EPOCH": 334, "BSTAR": -0.00034573, "MEAN_MOTION_DOT": -0.00053309, "MEAN_MOTION_DDOT": 0}, "tle": {"line1": "1 66985U 25288AC  25356.16668980 -.00053309  00000+0 -34573-3 0  9990", "line2": "2 66985  43.0007 109.3696 0001898 266.9067 246.9128 15.75063347  3349"}}, "geometry": {"type": "Point", "coordinates": [-103.25876348932623, 25.454760653298514]}}, {"type": "Feature", "properties": {"norad_id": 66986, "name": "STARLINK-36135", "group": "last-30-days", "lat": 24.31983423430224, "lon": -101.55757602612384, "alt_km": 341.4391950933914, "timestamp": "2025-12-22T11:33:19.157283+00:00", "meta": {"OBJECT_NAME": "STARLINK-36135", "OBJECT_ID": "2025-288AD", "EPOCH": "2025-12-22T04:00:01.998720", "MEAN_MOTION": 15.75036132, "ECCENTRICITY": 0.0001785, "INCLINATION": 43.0007, "RA_OF_ASC_NODE": 109.3639, "ARG_OF_PERICENTER": 267.4563, "MEAN_ANOMALY": 248.3026, "EPHEMERIS_TYPE": 0, "CLASSIFICATION_TYPE": "U", "NORAD_CAT_ID": 66986, "ELEMENT_SET_NO": 999, "REV_AT_EPOCH": 334, "BSTAR": -0.00018903, "MEAN_MOTION_DOT": -0.00029411, "MEAN_MOTION_DDOT": 0}, "tle": {"line1": "1 66986U 25288AD  25356.16668980 -.00029411  00000+0 -18903-3 0  9997", "line2": "2 66986  43.0007 109.3639 0001785 267.4563 248.3026 15.75036132  3344"}}, "geometry": {"type": "Point", "coordinates": [-101.55757602612384, 24.31983423430224]}}, {"type": "Feature", "properties": {"norad_id": 66987, "name": "STARLINK-36147", "group": "last-30-days", "lat": 23.168511972650347, "lon": -99.88860567367449, "alt_km": 341.4406403103885, "timestamp": "2025-12-22T11:33:19.157293+00:00", "meta": {"OBJECT_NAME": "STARLINK-36147", "OBJECT_ID": "2025-288AE", "EPOCH": "2025-12-22T04:00:01.998720", "MEAN_MOTION": 15.7502081, "ECCENTRICITY": 0.0001538, "INCLINATION": 43.0008, "RA_OF_ASC_NODE": 109.3598, "ARG_OF_PERICENTER": 264.2521, "MEAN_ANOMALY": 253.4269, "EPHEMERIS_TYPE": 0, "CLASSIFICATION_TYPE": "U", "NORAD_CAT_ID": 66987, "ELEMENT_SET_NO": 999, "REV_AT_EPOCH": 334, "BSTAR": -6.4413e-06, "MEAN_MOTION_DOT": -1.466e-05, "MEAN_MOTION_DDOT": 0}, "tle": {"line1": "1 66987U 25288AE  25356.16668980 -.00001466  00000+0 -64413-5 0  9997", "line2": "2 66987  43.0008 109.3598 0001538 264.2521 253.4269 15.75020810  3347"}}, "geometry": {"type": "Point", "coordinates": [-99.88860567367449, 23.168511972650347]}}, {"type": "Feature", "properties": {"norad_id": 66988, "name": "YAOGAN-47", "group": "last-30-days", "lat": 77.71384674753807, "lon": -80.99336175361876, "alt_km": 488.3291435339561, "timestamp": "2025-12-22T11:33:19.157315+00:00", "meta": {"OBJECT_NAME": "YAOGAN-47", "OBJECT_ID": "2025-289A", "EPOCH": "2025-12-20T02:21:43.539840", "MEAN_MOTION": 15.23243112, "ECCENTRICITY": 6.467e-05, "INCLINATION": 97.5265, "RA_OF_ASC_NODE": 59.2376, "ARG_OF_PERICENTER": 91.4531, "MEAN_ANOMALY": 268.678, "EPHEMERIS_TYPE": 0, "CLASSIFICATION_TYPE": "U", "NORAD_CAT_ID": 66988, "ELEMENT_SET_NO": 999, "REV_AT_EPOCH": 166, "BSTAR": 0.00010945697, "MEAN_MOTION_DOT": 2.52e-05, "MEAN_MOTION_DDOT": 0}, "tle": {"line1": "1 66988U 25289A   25354.09842060  .00002520  00000+0  10946-3 0  9992", "line2": "2 66988  97.5265  59.2376 0000646  91.4531 268.6780 15.23243112  1668"}}, "geometry": {"type": "Point", "coordinates": [-80.99336175361876, 77.71384674753807]}}, {"type": "Feature", "properties": {"norad_id": 66989, "name": "CZ-4B R/B", "group": "last-30-days", "lat": 52.1146277599692, "lon": 52.75894526825804, "alt_km": 348.8747692454608, "timestamp": "2025-12-22T11:33:19.157325+00:00", "meta": {"OBJECT_NAME": "CZ-4B R/B", "OBJECT_ID": "2025-289B", "EPOCH": "2025-12-22T03:41:00.499200", "MEAN_MOTION": 15.69423333, "ECCENTRICITY": 0.0141958, "INCLINATION": 97.5241, "RA_OF_ASC_NODE": 62.1871, "ARG_OF_PERICENTER": 327.2464, "MEAN_ANOMALY": 32.0053, "EPHEMERIS_TYPE": 0, "CLASSIFICATION_TYPE": "U", "NORAD_CAT_ID": 66989, "ELEMENT_SET_NO": 999, "REV_AT_EPOCH": 204, "BSTAR": 0.00060946, "MEAN_MOTION_DOT": 0.00128378, "MEAN_MOTION_DDOT": 7.0116e-06}, "tle": {"line1": "1 66989U 25289B   25356.15347800  .00128378  70116-5  60946-3 0  9990", "line2": "2 66989  97.5241  62.1871 0141958 327.2464  32.0053 15.69423333  2047"}}, "geometry": {"type": "Point", "coordinates": [52.75894526825804, 52.1146277599692]}}]}